TRANSIT 16 [?]          
1 02807U 67048A   22206.76646953  .00000074  00000+0  99119-4 0  9993
2 02807  89.6523  35.1697 0022337  89.9817 281.3184 13.50317227715946
TRANSIT 17 [?]          
1 02965U 67092A   22207.19638214  .00000080  00000+0  10284-3 0  9998
2 02965  89.2412 120.4653 0045932 221.5650 306.2811 13.53029757704290
TRANSIT 18 [?]          
1 03133U 68012A   22207.19399412  .00000070  00000+0  91199-4 0  9997
2 03133  90.0059 271.6113 0076404 147.7647 222.5777 13.51156680678833
NNSS 19 [?]             
1 04507U 70067A   22206.92946477  .00000104  00000+0  13666-3 0  9995
2 04507  89.9203 239.0433 0170180 272.7509  85.4175 13.50830882555746
NNSS O-20 [?]           
1 06909U 73081A   22206.58761415  .00000110  00000+0  10203-3 0  9992
2 06909  89.8192 276.7365 0156585 181.9617 178.0952 13.70684733634234
TRANSAT [?]             
1 10457U 77106A   22207.02203146  .00000053  00000+0  69052-4 0  9992
2 10457  89.6841 121.2796 0025815 151.4113 220.0514 13.48681814201089
NOVA I [?]              
1 12458U 81044A   22206.64618442  .00000038  00000+0  69619-4 0  9999
2 12458  89.8894 107.2696 0012525 274.9027 147.1135 13.23066191988396
NOVA 3 [?]              
1 15362U 84110A   22207.51617667  .00000059  00000+0  11934-3 0  9997
2 15362  90.0961  67.3525 0033075 132.2567 293.1466 13.22835342823946
OSCAR 30 [?]            
1 15935U 85066A   22206.89109517  .00000056  00000+0  88690-4 0  9995
2 15935  90.1763  78.5900 0168127 330.6756  39.6890 13.35758713799536
OSCAR 24 [?]            
1 15936U 85066B   22207.07532793  .00000056  00000+0  88533-4 0  9999
2 15936  90.1709  70.5569 0168792 335.8666 178.7631 13.35619061801696
POLAR BEAR [?]          
1 17070U 86088A   22207.51635684  .00000077  00000+0  69205-4 0  9995
2 17070  89.5615 235.8140 0037101 244.3367 232.2003 13.74872544790312
OSCAR 27 [?]            
1 18361U 87080A   22207.06447480  .00000079  00000+0  11591-3 0  9993
2 18361  90.3282  35.5164 0104952 161.9178 198.5748 13.44567027709752
OSCAR 29 [?]            
1 18362U 87080B   22206.81489440  .00000098  00000+0  14966-3 0  9998
2 18362  90.3294  35.8394 0105907 182.9686 188.0515 13.44152795709053
OSCAR 23 [?]            
1 19070U 88033A   22207.16388576  .00000042  00000+0  69293-4 0  9994
2 19070  90.3341 337.9956 0190275  16.6478 156.8758 13.27523967658854
OSCAR 32 [?]            
1 19071U 88033B   22206.84610453  .00000018  00000+0  22019-4 0  9999
2 19071  90.3342 338.0716 0188173   5.4668 148.5445 13.27703522658648
NOVA 11 [?]             
1 19223U 88052A   22206.88708079  .00000040  00000+0  74413-4 0  9995
2 19223  89.9737  80.7862 0030446 176.1663 195.5572 13.22746741646096
OSCAR 25 [?]            
1 19419U 88074A   22206.72703366  .00000068  00000+0  10160-3 0  9991
2 19419  90.0032  17.9040 0096715 170.7009 201.1447 13.42297969660578
OSCAR 31 [?]            
1 19420U 88074B   22206.74082822  .00000089  00000+0  13754-3 0  9997
2 19420  90.0042  18.0838 0095084 164.8228 206.7496 13.42306959660680
